ORBCOMM FM20 [+]        
1 25416U 98046D   24009.40627503  .00001187  00000+0  46443-3 0  9997
2 25416  44.9941 141.4734 0001425 184.7516 175.3318 14.34753560328839
ORBCOMM FM16 [-]        
1 25417U 98046E   24009.85828601  .00001826  00000+0  67664-3 0  9997
2 25417  44.9941 135.9440 0005211 188.1282 171.9481 14.35563021328821
ORBCOMM FM15 [-]        
1 25418U 98046F   24009.44462854  .00001483  00000+0  56147-3 0  9990
2 25418  44.9973 141.6808 0004681 188.4800 171.5969 14.35310393328771
ORBCOMM FM14 [-]        
1 25419U 98046G   24010.47803759  .00001902  00000+0  70476-3 0  9996
2 25419  44.9963 136.0611 0003615 186.4616 287.1180 14.35439823329107
ORBCOMM FM13 [+]        
1 25420U 98046H   24010.37614251  .00001495  00000+0  57092-3 0  9990
2 25420  44.9975 140.7854 0005638 175.9207 184.1687 14.34830857329063
ORBCOMM FM21 [-]        
1 25475U 98053A   24010.04528363  .00000873  00000+0  35413-3 0  9992
2 25475  45.0077 226.5264 0000901  91.7344 268.3606 14.34826195322239
ORBCOMM FM22 [-]        
1 25476U 98053B   24010.41112641  .00001156  00000+0  44930-3 0  9991
2 25476  45.0072 222.5328 0002559 107.0638 253.0490 14.35250506322308
ORBCOMM FM23 [-]        
1 25477U 98053C   24010.00609919  .00001003  00000+0  39947-3 0  9999
2 25477  45.0079 229.1616 0001903  96.0429 264.0635 14.34829190322354
