<?xml version="1.0" encoding="UTF-8"?>
<ndm xmlns:xsi="http://www.w3.org/2001/XMLSchema-instance" xsi:noNamespaceSchemaLocation="https://sanaregistry.org/r/ndmxml_unqualified/ndmxml-2.0.0-master-2.0.xsd">
<omm id="CCSDS_OMM_VERS" version="2.0">
<header><CREATION_DATE/><ORIGINATOR/></header><body><segment><metadata><OBJECT_NAME>ORBCOMM FM20 [+]</OBJECT_NAME><OBJECT_ID>1998-046D</OBJECT_ID><CENTER_NAME>EARTH</CENTER_NAME><REF_FRAME>TEME</REF_FRAME><TIME_SYSTEM>UTC</TIME_SYSTEM><MEAN_ELEMENT_THEORY>SGP4</MEAN_ELEMENT_THEORY></metadata><data><meanElements><EPOCH>2024-01-09T09:45:02.162592</EPOCH><MEAN_MOTION>14.34753560</MEAN_MOTION><ECCENTRICITY>.0001425</ECCENTRICITY><INCLINATION>44.9941</INCLINATION><RA_OF_ASC_NODE>141.4734</RA_OF_ASC_NODE><ARG_OF_PERICENTER>184.7516</ARG_OF_PERICENTER><MEAN_ANOMALY>175.3318</MEAN_ANOMALY></meanElements><tleParameters><EPHEMERIS_TYPE>0</EPHEMERIS_TYPE><CLASSIFICATION_TYPE>U</CLASSIFICATION_TYPE><NORAD_CAT_ID>25416</NORAD_CAT_ID><ELEMENT_SET_NO>999</ELEMENT_SET_NO><REV_AT_EPOCH>32883</REV_AT_EPOCH><BSTAR>.46443E-3</BSTAR><MEAN_MOTION_DOT>.1187E-4</MEAN_MOTION_DOT><MEAN_MOTION_DDOT>0</MEAN_MOTION_DDOT></tleParameters></data></segment></body></omm>
<omm id="CCSDS_OMM_VERS" version="2.0">
<header><CREATION_DATE/><ORIGINATOR/></header><body><segment><metadata><OBJECT_NAME>ORBCOMM FM16 [-]</OBJECT_NAME><OBJECT_ID>1998-046E</OBJECT_ID><CENTER_NAME>EARTH</CENTER_NAME><REF_FRAME>TEME</REF_FRAME><TIME_SYSTEM>UTC</TIME_SYSTEM><MEAN_ELEMENT_THEORY>SGP4</MEAN_ELEMENT_THEORY></metadata><data><meanElements><EPOCH>2024-01-09T20:35:55.911264</EPOCH><MEAN_MOTION>14.35563021</MEAN_MOTION><ECCENTRICITY>.0005211</ECCENTRICITY><INCLINATION>44.9941</INCLINATION><RA_OF_ASC_NODE>135.9440</RA_OF_ASC_NODE><ARG_OF_PERICENTER>188.1282</ARG_OF_PERICENTER><MEAN_ANOMALY>171.9481</MEAN_ANOMALY></meanElements><tleParameters><EPHEMERIS_TYPE>0</EPHEMERIS_TYPE><CLASSIFICATION_TYPE>U</CLASSIFICATION_TYPE><NORAD_CAT_ID>25417</NORAD_CAT_ID><ELEMENT_SET_NO>999</ELEMENT_SET_NO><REV_AT_EPOCH>32882</REV_AT_EPOCH><BSTAR>.67664E-3</BSTAR><MEAN_MOTION_DOT>.1826E-4</MEAN_MOTION_DOT><MEAN_MOTION_DDOT>0</MEAN_MOTION_DDOT></tleParameters></data></segment></body></omm>
<omm id="CCSDS_OMM_VERS" version="2.0">
<header><CREATION_DATE/><ORIGINATOR/></header><body><segment><metadata><OBJECT_NAME>ORBCOMM FM15 [-]</OBJECT_NAME><OBJECT_ID>1998-046F</OBJECT_ID><CENTER_NAME>EARTH</CENTER_NAME><REF_FRAME>TEME</REF_FRAME><TIME_SYSTEM>UTC</TIME_SYSTEM><MEAN_ELEMENT_THEORY>SGP4</MEAN_ELEMENT_THEORY></metadata><data><meanElements><EPOCH>2024-01-09T10:40:15.905856</EPOCH><MEAN_MOTION>14.35310393</MEAN_MOTION><ECCENTRICITY>.0004681</ECCENTRICITY><INCLINATION>44.9973</INCLINATION><RA_OF_ASC_NODE>141.6808</RA_OF_ASC_NODE><ARG_OF_PERICENTER>188.4800</ARG_OF_PERICENTER><MEAN_ANOMALY>171.5969</MEAN_ANOMALY></meanElements><tleParameters><EPHEMERIS_TYPE>0</EPHEMERIS_TYPE><CLASSIFICATION_TYPE>U</CLASSIFICATION_TYPE><NORAD_CAT_ID>25418</NORAD_CAT_ID><ELEMENT_SET_NO>999</ELEMENT_SET_NO><REV_AT_EPOCH>32877</REV_AT_EPOCH><BSTAR>.56147E-3</BSTAR><MEAN_MOTION_DOT>.1483E-4</MEAN_MOTION_DOT><MEAN_MOTION_DDOT>0</MEAN_MOTION_DDOT></tleParameters></data></segment></body></omm>
<omm id="CCSDS_OMM_VERS" version="2.0">
<header><CREATION_DATE/><ORIGINATOR/></header><body><segment><metadata><OBJECT_NAME>ORBCOMM FM14 [-]</OBJECT_NAME><OBJECT_ID>1998-046G</OBJECT_ID><CENTER_NAME>EARTH</CENTER_NAME><REF_FRAME>TEME</REF_FRAME><TIME_SYSTEM>UTC</TIME_SYSTEM><MEAN_ELEMENT_THEORY>SGP4</MEAN_ELEMENT_THEORY></metadata><data><meanElements><EPOCH>2024-01-10T11:28:22.447776</EPOCH><MEAN_MOTION>14.35439823</MEAN_MOTION><ECCENTRICITY>.0003615</ECCENTRICITY><INCLINATION>44.9963</INCLINATION><RA_OF_ASC_NODE>136.0611</RA_OF_ASC_NODE><ARG_OF_PERICENTER>186.4616</ARG_OF_PERICENTER><MEAN_ANOMALY>287.1180</MEAN_ANOMALY></meanElements><tleParameters><EPHEMERIS_TYPE>0</EPHEMERIS_TYPE><CLASSIFICATION_TYPE>U</CLASSIFICATION_TYPE><NORAD_CAT_ID>25419</NORAD_CAT_ID><ELEMENT_SET_NO>999</ELEMENT_SET_NO><REV_AT_EPOCH>32910</REV_AT_EPOCH><BSTAR>.70476E-3</BSTAR><MEAN_MOTION_DOT>.1902E-4</MEAN_MOTION_DOT><MEAN_MOTION_DDOT>0</MEAN_MOTION_DDOT></tleParameters></data></segment></body></omm>
<omm id="CCSDS_OMM_VERS" version="2.0">
<header><CREATION_DATE/><ORIGINATOR/></header><body><segment><metadata><OBJECT_NAME>ORBCOMM FM13 [+]</OBJECT_NAME><OBJECT_ID>1998-046H</OBJECT_ID><CENTER_NAME>EARTH</CENTER_NAME><REF_FRAME>TEME</REF_FRAME><TIME_SYSTEM>UTC</TIME_SYSTEM><MEAN_ELEMENT_THEORY>SGP4</MEAN_ELEMENT_THEORY></metadata><data><meanElements><EPOCH>2024-01-10T09:01:38.712864</EPOCH><MEAN_MOTION>14.34830857</MEAN_MOTION><ECCENTRICITY>.0005638</ECCENTRICITY><INCLINATION>44.9975</INCLINATION><RA_OF_ASC_NODE>140.7854</RA_OF_ASC_NODE><ARG_OF_PERICENTER>175.9207</ARG_OF_PERICENTER><MEAN_ANOMALY>184.1687</MEAN_ANOMALY></meanElements><tleParameters><EPHEMERIS_TYPE>0</EPHEMERIS_TYPE><CLASSIFICATION_TYPE>U</CLASSIFICATION_TYPE><NORAD_CAT_ID>25420</NORAD_CAT_ID><ELEMENT_SET_NO>999</ELEMENT_SET_NO><REV_AT_EPOCH>32906</REV_AT_EPOCH><BSTAR>.57092E-3</BSTAR><MEAN_MOTION_DOT>.1495E-4</MEAN_MOTION_DOT><MEAN_MOTION_DDOT>0</MEAN_MOTION_DDOT></tleParameters></data></segment></body></omm>
<omm id="CCSDS_OMM_VERS" version="2.0">
<header><CREATION_DATE/><ORIGINATOR/></header><body><segment><metadata><OBJECT_NAME>ORBCOMM FM21 [-]</OBJECT_NAME><OBJECT_ID>1998-053A</OBJECT_ID><CENTER_NAME>EARTH</CENTER_NAME><REF_FRAME>TEME</REF_FRAME><TIME_SYSTEM>UTC</TIME_SYSTEM><MEAN_ELEMENT_THEORY>SGP4</MEAN_ELEMENT_THEORY></metadata><data><meanElements><EPOCH>2024-01-10T01:05:12.505632</EPOCH><MEAN_MOTION>14.34826195</MEAN_MOTION><ECCENTRICITY>.0000901</ECCENTRICITY><INCLINATION>45.0077</INCLINATION><RA_OF_ASC_NODE>226.5264</RA_OF_ASC_NODE><ARG_OF_PERICENTER>91.7344</ARG_OF_PERICENTER><MEAN_ANOMALY>268.3606</MEAN_ANOMALY></meanElements><tleParameters><EPHEMERIS_TYPE>0</EPHEMERIS_TYPE><CLASSIFICATION_TYPE>U</CLASSIFICATION_TYPE><NORAD_CAT_ID>25475</NORAD_CAT_ID><ELEMENT_SET_NO>999</ELEMENT_SET_NO><REV_AT_EPOCH>32223</REV_AT_EPOCH><BSTAR>.35413E-3</BSTAR><MEAN_MOTION_DOT>.873E-5</MEAN_MOTION_DOT><MEAN_MOTION_DDOT>0</MEAN_MOTION_DDOT></tleParameters></data></segment></body></omm>
<omm id="CCSDS_OMM_VERS" version="2.0">
<header><CREATION_DATE/><ORIGINATOR/></header><body><segment><metadata><OBJECT_NAME>ORBCOMM FM22 [-]</OBJECT_NAME><OBJECT_ID>1998-053B</OBJECT_ID><CENTER_NAME>EARTH</CENTER_NAME><REF_FRAME>TEME</REF_FRAME><TIME_SYSTEM>UTC</TIME_SYSTEM><MEAN_ELEMENT_THEORY>SGP4</MEAN_ELEMENT_THEORY></metadata><data><meanElements><EPOCH>2024-01-10T09:52:01.321824</EPOCH><MEAN_MOTION>14.35250506</MEAN_MOTION><ECCENTRICITY>.0002559</ECCENTRICITY><INCLINATION>45.0072</INCLINATION><RA_OF_ASC_NODE>222.5328</RA_OF_ASC_NODE><ARG_OF_PERICENTER>107.0638</ARG_OF_PERICENTER><MEAN_ANOMALY>253.0490</MEAN_ANOMALY></meanElements><tleParameters><EPHEMERIS_TYPE>0</EPHEMERIS_TYPE><CLASSIFICATION_TYPE>U</CLASSIFICATION_TYPE><NORAD_CAT_ID>25476</NORAD_CAT_ID><ELEMENT_SET_NO>999</ELEMENT_SET_NO><REV_AT_EPOCH>32230</REV_AT_EPOCH><BSTAR>.4493E-3</BSTAR><MEAN_MOTION_DOT>.1156E-4</MEAN_MOTION_DOT><MEAN_MOTION_DDOT>0</MEAN_MOTION_DDOT></tleParameters></data></segment></body></omm>
<omm id="CCSDS_OMM_VERS" version="2.0">
<header><CREATION_DATE/><ORIGINATOR/></header><body><segment><metadata><OBJECT_NAME>ORBCOMM FM23 [-]</OBJECT_NAME><OBJECT_ID>1998-053C</OBJECT_ID><CENTER_NAME>EARTH</CENTER_NAME><REF_FRAME>TEME</REF_FRAME><TIME_SYSTEM>UTC</TIME_SYSTEM><MEAN_ELEMENT_THEORY>SGP4</MEAN_ELEMENT_THEORY></metadata><data><meanElements><EPOCH>2024-01-10T00:08:46.970016</EPOCH><MEAN_MOTION>14.34829190</MEAN_MOTION><ECCENTRICITY>.0001903</ECCENTRICITY><INCLINATION>45.0079</INCLINATION><RA_OF_ASC_NODE>229.1616</RA_OF_ASC_NODE><ARG_OF_PERICENTER>96.0429</ARG_OF_PERICENTER><MEAN_ANOMALY>264.0635</MEAN_ANOMALY></meanElements><tleParameters><EPHEMERIS_TYPE>0</EPHEMERIS_TYPE><CLASSIFICATION_TYPE>U</CLASSIFICATION_TYPE><NORAD_CAT_ID>25477</NORAD_CAT_ID><ELEMENT_SET_NO>999</ELEMENT_SET_NO><REV_AT_EPOCH>32235</REV_AT_EPOCH><BSTAR>.39947E-3</BSTAR><MEAN_MOTION_DOT>.1003E-4</MEAN_MOTION_DOT><MEAN_MOTION_DDOT>0</MEAN_MOTION_DDOT></tleParameters></data></segment></body></omm>

</ndm>
